JILIN-1 GAOFEN 03D51    
1 54252U 22155B   26189.92612667  .00042833  00000+0  44767-3 0  9998
2 54252  97.6245 336.4425 0004024 255.3572 104.7240 15.64355394203142
JILIN-1 GAOFEN 03D53    
1 54253U 22155C   26189.92726520  .00025671  00000+0  39605-3 0  9999
2 54253  97.6237 331.7499 0004678 278.3671  81.7051 15.54126404202862
JILIN-1 GAOFEN 03D52    
1 54255U 22155E   26189.96729282  .00036696  00000+0  42733-3 0  9998
2 54255  97.6221 334.7280 0003432 273.4943  86.5921 15.61604481203104
JILIN-1 GAOFEN 03D50    
1 54690U 22167J   26189.97048692  .00008031  00000+0  23914-3 0  9996
2 54690  97.6851 358.7126 0005732  41.4669 318.7007 15.34973921198694
JILIN-1 GAOFEN 03D47    
1 54692U 22167L   26189.97148206  .00007196  00000+0  21932-3 0  9999
2 54692  97.6948   0.4504 0008278  49.3157 310.8803 15.34259170198680
JILIN-1 GAOFEN 03D49    
1 54694U 22167N   26189.93696733  .00008585  00000+0  23234-3 0  9990
2 54694  97.6824   1.0453 0006408  67.7756 292.4167 15.37938781198837
JILIN-1 GAOFEN 03D48    
1 54695U 22167P   26189.96598473  .00007685  00000+0  22369-3 0  9994
2 54695  97.6897   0.4177 0006963  49.9528 310.2325 15.35701469198732
JILIN GAOFEN OBJECT A   
1 68691U 26080A   26187.77966256  .00003644  00000+0  23333-3 0  9991
2 68691  97.6601 263.2709 0011906   4.6722 355.4615 15.09144054 12610
JILIN GAOFEN OBJECT B   
1 68692U 26080B   26189.94930188  .00003522  00000+0  22590-3 0  9997
2 68692  97.6591 265.4532 0015309 335.9428  24.1083 15.09069155 12944
JILIN GAOFEN OBJECT C   
1 68693U 26080C   26190.56308330  .00004121  00000+0  26325-3 0  9992
2 68693  97.6595 266.0352 0012588 335.3864  24.6762 15.09147855 13034
JILIN GAOFEN OBJECT D   
1 68694U 26080D   26189.94955848  .00003651  00000+0  23482-3 0  9993
2 68694  97.6656 265.5233 0016993 347.8187  12.2629 15.08925927 12920
JILIN GAOFEN OBJECT E   
1 68695U 26080E   26189.99871826  .00002873  00000+0  18441-3 0  9996
2 68695  97.6637 265.5918 0013004 359.8045   0.3176 15.09218331 12915
JILIN GAOFEN OBJECT F   
1 68696U 26080F   26189.99759169  .00002900  00000+0  18624-3 0  9996
2 68696  97.6608 265.5618 0014121   5.4212 354.7167 15.09182637 12917
JILIN GAOFEN OBJECT G   
1 68697U 26080G   26189.91733814  .00002794  00000+0  17969-3 0  9990
2 68697  97.6650 265.5623 0013985 358.6609   1.4580 15.09164942 12904
JILIN GAOFEN OBJECT H   
1 68698U 26080H   26189.84870038  .00002766  00000+0  17827-3 0  9995
2 68698  97.6637 265.4861 0014715   0.2149 359.9083 15.09093829 12896
