{"fetched_at":"2026-07-09T18:17:09.242Z","source":"https://celestrak.org/NORAD/elements/gp.php?NAME=JILIN&FORMAT=JSON","constellation":"jilin-1-gaofen","records":[{"OBJECT_NAME":"JILIN-1 GAOFEN 03D51","OBJECT_ID":"2022-155B","EPOCH":"2026-07-08T22:13:37.344288","CLASSIFICATION_TYPE":"U","MEAN_MOTION":15.64355394,"ECCENTRICITY":0.00040249,"INCLINATION":97.6245,"RA_OF_ASC_NODE":336.4425,"ARG_OF_PERICENTER":255.3572,"MEAN_ANOMALY":104.724,"EPHEMERIS_TYPE":0,"NORAD_CAT_ID":54252,"ELEMENT_SET_NO":999,"REV_AT_EPOCH":20314,"BSTAR":0.00044766649,"MEAN_MOTION_DOT":0.00042833,"MEAN_MOTION_DDOT":0},{"OBJECT_NAME":"JILIN-1 GAOFEN 03D53","OBJECT_ID":"2022-155C","EPOCH":"2026-07-08T22:15:15.713280","CLASSIFICATION_TYPE":"U","MEAN_MOTION":15.54126404,"ECCENTRICITY":0.00046783,"INCLINATION":97.6237,"RA_OF_ASC_NODE":331.7499,"ARG_OF_PERICENTER":278.3671,"MEAN_ANOMALY":81.7051,"EPHEMERIS_TYPE":0,"NORAD_CAT_ID":54253,"ELEMENT_SET_NO":999,"REV_AT_EPOCH":20286,"BSTAR":0.00039604609,"MEAN_MOTION_DOT":0.00025671,"MEAN_MOTION_DDOT":0},{"OBJECT_NAME":"JILIN-1 GAOFEN 03D52","OBJECT_ID":"2022-155E","EPOCH":"2026-07-08T23:12:54.099648","CLASSIFICATION_TYPE":"U","MEAN_MOTION":15.61604481,"ECCENTRICITY":0.0003432,"INCLINATION":97.6221,"RA_OF_ASC_NODE":334.728,"ARG_OF_PERICENTER":273.4943,"MEAN_ANOMALY":86.5921,"EPHEMERIS_TYPE":0,"NORAD_CAT_ID":54255,"ELEMENT_SET_NO":999,"REV_AT_EPOCH":20310,"BSTAR":0.00042733047,"MEAN_MOTION_DOT":0.00036696,"MEAN_MOTION_DDOT":0},{"OBJECT_NAME":"JILIN-1 GAOFEN 03D50","OBJECT_ID":"2022-167J","EPOCH":"2026-07-08T23:17:30.069888","CLASSIFICATION_TYPE":"U","MEAN_MOTION":15.34973921,"ECCENTRICITY":0.00057322,"INCLINATION":97.6851,"RA_OF_ASC_NODE":358.7126,"ARG_OF_PERICENTER":41.4669,"MEAN_ANOMALY":318.7007,"EPHEMERIS_TYPE":0,"NORAD_CAT_ID":54690,"ELEMENT_SET_NO":999,"REV_AT_EPOCH":19869,"BSTAR":0.00023914243,"MEAN_MOTION_DOT":0.00008031,"MEAN_MOTION_DDOT":0},{"OBJECT_NAME":"JILIN-1 GAOFEN 03D47","OBJECT_ID":"2022-167L","EPOCH":"2026-07-08T23:18:56.049984","CLASSIFICATION_TYPE":"U","MEAN_MOTION":15.3425917,"ECCENTRICITY":0.00082785,"INCLINATION":97.6948,"RA_OF_ASC_NODE":0.4504,"ARG_OF_PERICENTER":49.3157,"MEAN_ANOMALY":310.8803,"EPHEMERIS_TYPE":0,"NORAD_CAT_ID":54692,"ELEMENT_SET_NO":999,"REV_AT_EPOCH":19868,"BSTAR":0.00021932079,"MEAN_MOTION_DOT":0.00007196,"MEAN_MOTION_DDOT":0},{"OBJECT_NAME":"JILIN-1 GAOFEN 03D49","OBJECT_ID":"2022-167N","EPOCH":"2026-07-08T22:29:13.977312","CLASSIFICATION_TYPE":"U","MEAN_MOTION":15.37938781,"ECCENTRICITY":0.00064081,"INCLINATION":97.6824,"RA_OF_ASC_NODE":1.0453,"ARG_OF_PERICENTER":67.7756,"MEAN_ANOMALY":292.4167,"EPHEMERIS_TYPE":0,"NORAD_CAT_ID":54694,"ELEMENT_SET_NO":999,"REV_AT_EPOCH":19883,"BSTAR":0.00023234055,"MEAN_MOTION_DOT":0.00008585,"MEAN_MOTION_DDOT":0},{"OBJECT_NAME":"JILIN-1 GAOFEN 03D48","OBJECT_ID":"2022-167P","EPOCH":"2026-07-08T23:11:01.080672","CLASSIFICATION_TYPE":"U","MEAN_MOTION":15.35701469,"ECCENTRICITY":0.00069634,"INCLINATION":97.6897,"RA_OF_ASC_NODE":0.4177,"ARG_OF_PERICENTER":49.9528,"MEAN_ANOMALY":310.2325,"EPHEMERIS_TYPE":0,"NORAD_CAT_ID":54695,"ELEMENT_SET_NO":999,"REV_AT_EPOCH":19873,"BSTAR":0.00022369466,"MEAN_MOTION_DOT":0.00007685,"MEAN_MOTION_DDOT":0},{"OBJECT_NAME":"JILIN GAOFEN OBJECT A","OBJECT_ID":"2026-080A","EPOCH":"2026-07-06T18:42:42.845184","CLASSIFICATION_TYPE":"U","MEAN_MOTION":15.09144054,"ECCENTRICITY":0.00119065,"INCLINATION":97.6601,"RA_OF_ASC_NODE":263.2709,"ARG_OF_PERICENTER":4.6722,"MEAN_ANOMALY":355.4615,"EPHEMERIS_TYPE":0,"NORAD_CAT_ID":68691,"ELEMENT_SET_NO":999,"REV_AT_EPOCH":1261,"BSTAR":0.00023333317,"MEAN_MOTION_DOT":0.00003644,"MEAN_MOTION_DDOT":0},{"OBJECT_NAME":"JILIN GAOFEN OBJECT B","OBJECT_ID":"2026-080B","EPOCH":"2026-07-08T22:46:59.682432","CLASSIFICATION_TYPE":"U","MEAN_MOTION":15.09069155,"ECCENTRICITY":0.00153098,"INCLINATION":97.6591,"RA_OF_ASC_NODE":265.4532,"ARG_OF_PERICENTER":335.9428,"MEAN_ANOMALY":24.1083,"EPHEMERIS_TYPE":0,"NORAD_CAT_ID":68692,"ELEMENT_SET_NO":999,"REV_AT_EPOCH":1294,"BSTAR":0.00022590159,"MEAN_MOTION_DOT":0.00003522,"MEAN_MOTION_DDOT":0},{"OBJECT_NAME":"JILIN GAOFEN OBJECT C","OBJECT_ID":"2026-080C","EPOCH":"2026-07-09T13:30:50.397120","CLASSIFICATION_TYPE":"U","MEAN_MOTION":15.09147855,"ECCENTRICITY":0.0012588,"INCLINATION":97.6595,"RA_OF_ASC_NODE":266.0352,"ARG_OF_PERICENTER":335.3864,"MEAN_ANOMALY":24.6762,"EPHEMERIS_TYPE":0,"NORAD_CAT_ID":68693,"ELEMENT_SET_NO":999,"REV_AT_EPOCH":1303,"BSTAR":0.00026325,"MEAN_MOTION_DOT":0.00004121,"MEAN_MOTION_DDOT":0},{"OBJECT_NAME":"JILIN GAOFEN OBJECT D","OBJECT_ID":"2026-080D","EPOCH":"2026-07-08T22:47:21.852672","CLASSIFICATION_TYPE":"U","MEAN_MOTION":15.08925927,"ECCENTRICITY":0.00169936,"INCLINATION":97.6656,"RA_OF_ASC_NODE":265.5233,"ARG_OF_PERICENTER":347.8187,"MEAN_ANOMALY":12.2629,"EPHEMERIS_TYPE":0,"NORAD_CAT_ID":68694,"ELEMENT_SET_NO":999,"REV_AT_EPOCH":1292,"BSTAR":0.00023482245,"MEAN_MOTION_DOT":0.00003651,"MEAN_MOTION_DDOT":0},{"OBJECT_NAME":"JILIN GAOFEN OBJECT E","OBJECT_ID":"2026-080E","EPOCH":"2026-07-08T23:58:09.257664","CLASSIFICATION_TYPE":"U","MEAN_MOTION":15.09218331,"ECCENTRICITY":0.00130049,"INCLINATION":97.6637,"RA_OF_ASC_NODE":265.5918,"ARG_OF_PERICENTER":359.8045,"MEAN_ANOMALY":0.3176,"EPHEMERIS_TYPE":0,"NORAD_CAT_ID":68695,"ELEMENT_SET_NO":999,"REV_AT_EPOCH":1291,"BSTAR":0.0001844149,"MEAN_MOTION_DOT":0.00002873,"MEAN_MOTION_DDOT":0},{"OBJECT_NAME":"JILIN GAOFEN OBJECT F","OBJECT_ID":"2026-080F","EPOCH":"2026-07-08T23:56:31.922016","CLASSIFICATION_TYPE":"U","MEAN_MOTION":15.09182637,"ECCENTRICITY":0.00141215,"INCLINATION":97.6608,"RA_OF_ASC_NODE":265.5618,"ARG_OF_PERICENTER":5.4212,"MEAN_ANOMALY":354.7167,"EPHEMERIS_TYPE":0,"NORAD_CAT_ID":68696,"ELEMENT_SET_NO":999,"REV_AT_EPOCH":1291,"BSTAR":0.00018623839,"MEAN_MOTION_DOT":0.000029,"MEAN_MOTION_DDOT":0},{"OBJECT_NAME":"JILIN GAOFEN OBJECT G","OBJECT_ID":"2026-080G","EPOCH":"2026-07-08T22:00:58.015296","CLASSIFICATION_TYPE":"U","MEAN_MOTION":15.09164942,"ECCENTRICITY":0.00139853,"INCLINATION":97.665,"RA_OF_ASC_NODE":265.5623,"ARG_OF_PERICENTER":358.6609,"MEAN_ANOMALY":1.458,"EPHEMERIS_TYPE":0,"NORAD_CAT_ID":68697,"ELEMENT_SET_NO":999,"REV_AT_EPOCH":1290,"BSTAR":0.00017969471,"MEAN_MOTION_DOT":0.00002794,"MEAN_MOTION_DDOT":0},{"OBJECT_NAME":"JILIN GAOFEN OBJECT H","OBJECT_ID":"2026-080H","EPOCH":"2026-07-08T20:22:07.712832","CLASSIFICATION_TYPE":"U","MEAN_MOTION":15.09093829,"ECCENTRICITY":0.00147152,"INCLINATION":97.6637,"RA_OF_ASC_NODE":265.4861,"ARG_OF_PERICENTER":0.2149,"MEAN_ANOMALY":359.9083,"EPHEMERIS_TYPE":0,"NORAD_CAT_ID":68698,"ELEMENT_SET_NO":999,"REV_AT_EPOCH":1289,"BSTAR":0.00017827063,"MEAN_MOTION_DOT":0.00002766,"MEAN_MOTION_DDOT":0}]}
